{
  "type": "FeatureCollection",
  "features": [
    {
      "type": "Feature",
      "properties": {
        "norad_id": 38250,
        "name": "BEIDOU-2 M3 (C11)",
        "group": "beidou",
        "lat": -55.300884922732166,
        "lon": -126.42183890873642,
        "alt_km": 21466.07620546933,
        "timestamp": "2025-12-08T23:34:04.234405+00:00",
        "meta_object_name": "BEIDOU-2 M3 (C11)",
        "meta_object_id": "2012-018A",
        "meta_epoch": "2025-12-08T13:38:39.272640",
        "meta_mean_motion": 1.86229758,
        "meta_eccentricity": 0.00243707,
        "meta_inclination": 55.9237,
        "meta_ra_of_asc_node": 311.2978,
        "meta_arg_of_pericenter": 274.148,
        "meta_mean_anomaly": 85.5607,
        "meta_ephemeris_type": 0,
        "meta_classification_type": "U",
        "meta_norad_cat_id": 38250,
        "meta_element_set_no": 999,
        "meta_rev_at_epoch": 9239,
        "meta_bstar": 0,
        "meta_mean_motion_dot": -7.3e-07,
        "meta_mean_motion_ddot": 0,
        "tle_line1": "1 38250U 12018A   25342.56851010 -.00000073  00000+0  00000+0 0  9991",
        "tle_line2": "2 38250  55.9237 311.2978 0024370 274.1480  85.5607  1.86229758 92396"
      },
      "geometry": {
        "type": "Point",
        "coordinates": [
          -126.42183890873642,
          -55.300884922732166
        ]
      }
    },
    {
      "type": "Feature",
      "properties": {
        "norad_id": 38251,
        "name": "BEIDOU-2 M4 (C12)",
        "group": "beidou",
        "lat": -30.067872986085842,
        "lon": -72.65218967362694,
        "alt_km": 21501.448605033172,
        "timestamp": "2025-12-08T23:34:04.234416+00:00",
        "meta_object_name": "BEIDOU-2 M4 (C12)",
        "meta_object_id": "2012-018B",
        "meta_epoch": "2025-12-08T12:00:48.229344",
        "meta_mean_motion": 1.86229448,
        "meta_eccentricity": 0.00155158,
        "meta_inclination": 55.8253,
        "meta_ra_of_asc_node": 310.5294,
        "meta_arg_of_pericenter": 277.5058,
        "meta_mean_anomaly": 82.3051,
        "meta_ephemeris_type": 0,
        "meta_classification_type": "U",
        "meta_norad_cat_id": 38251,
        "meta_element_set_no": 999,
        "meta_rev_at_epoch": 9239,
        "meta_bstar": 0,
        "meta_mean_motion_dot": -7.3e-07,
        "meta_mean_motion_ddot": 0,
        "tle_line1": "1 38251U 12018B   25342.50055821 -.00000073  00000+0  00000+0 0  9992",
        "tle_line2": "2 38251  55.8253 310.5294 0015515 277.5058  82.3051  1.86229448 92390"
      },
      "geometry": {
        "type": "Point",
        "coordinates": [
          -72.65218967362694,
          -30.067872986085842
        ]
      }
    },
    {
      "type": "Feature",
      "properties": {
        "norad_id": 38775,
        "name": "BEIDOU-2 M6 (C14)",
        "group": "beidou",
        "lat": 19.30732319811914,
        "lon": -124.2599154887981,
        "alt_km": 21556.2732836491,
        "timestamp": "2025-12-08T23:34:04.234428+00:00",
        "meta_object_name": "BEIDOU-2 M6 (C14)",
        "meta_object_id": "2012-050B",
        "meta_epoch": "2025-12-08T05:04:33.479040",
        "meta_mean_motion": 1.86230723,
        "meta_eccentricity": 0.00110356,
        "meta_inclination": 56.3747,
        "meta_ra_of_asc_node": 69.2178,
        "meta_arg_of_pericenter": 345.3738,
        "meta_mean_anomaly": 14.6151,
        "meta_ephemeris_type": 0,
        "meta_classification_type": "U",
        "meta_norad_cat_id": 38775,
        "meta_element_set_no": 999,
        "meta_rev_at_epoch": 8975,
        "meta_bstar": 0,
        "meta_mean_motion_dot": -4.4e-07,
        "meta_mean_motion_ddot": 0,
        "tle_line1": "1 38775U 12050B   25342.21149860 -.00000044  00000+0  00000+0 0  9992",
        "tle_line2": "2 38775  56.3747  69.2178 0011035 345.3738  14.6151  1.86230723 89759"
      },
      "geometry": {
        "type": "Point",
        "coordinates": [
          -124.2599154887981,
          19.30732319811914
        ]
      }
    },
    {
      "type": "Feature",
      "properties": {
        "norad_id": 38953,
        "name": "BEIDOU-2 G6 (C02)",
        "group": "beidou",
        "lat": 3.885660042182929,
        "lon": 155.55314567380896,
        "alt_km": 35814.10096676979,
        "timestamp": "2025-12-08T23:34:04.234440+00:00",
        "meta_object_name": "BEIDOU-2 G6 (C02)",
        "meta_object_id": "2012-059A",
        "meta_epoch": "2025-12-08T08:51:56.972160",
        "meta_mean_motion": 1.00270135,
        "meta_eccentricity": 0.00076794,
        "meta_inclination": 3.938,
        "meta_ra_of_asc_node": 75.5466,
        "meta_arg_of_pericenter": 289.5213,
        "meta_mean_anomaly": 289.3333,
        "meta_ephemeris_type": 0,
        "meta_classification_type": "U",
        "meta_norad_cat_id": 38953,
        "meta_element_set_no": 999,
        "meta_rev_at_epoch": 4799,
        "meta_bstar": 0,
        "meta_mean_motion_dot": -1.74e-06,
        "meta_mean_motion_ddot": 0,
        "tle_line1": "1 38953U 12059A   25342.36940940 -.00000174  00000+0  00000+0 0  9997",
        "tle_line2": "2 38953   3.9380  75.5466 0007679 289.5213 289.3333  1.00270135 47994"
      },
      "geometry": {
        "type": "Point",
        "coordinates": [
          155.55314567380896,
          3.885660042182929
        ]
      }
    },
    {
      "type": "Feature",
      "properties": {
        "norad_id": 40748,
        "name": "BEIDOU-3S M2S (C58)",
        "group": "beidou",
        "lat": -4.142721002087666,
        "lon": 131.47547418732077,
        "alt_km": 21525.056580565717,
        "timestamp": "2025-12-08T23:34:04.234474+00:00",
        "meta_object_name": "BEIDOU-3S M2S (C58)",
        "meta_object_id": "2015-037A",
        "meta_epoch": "2025-12-08T04:02:52.726848",
        "meta_mean_motion": 1.86229067,
        "meta_eccentricity": 0.0012292,
        "meta_inclination": 55.0429,
        "meta_ra_of_asc_node": 308.6206,
        "meta_arg_of_pericenter": 268.2932,
        "meta_mean_anomaly": 91.5527,
        "meta_ephemeris_type": 0,
        "meta_classification_type": "U",
        "meta_norad_cat_id": 40748,
        "meta_element_set_no": 999,
        "meta_rev_at_epoch": 7056,
        "meta_bstar": 0,
        "meta_mean_motion_dot": -7.2e-07,
        "meta_mean_motion_ddot": 0,
        "tle_line1": "1 40748U 15037A   25342.16866582 -.00000072  00000+0  00000+0 0  9995",
        "tle_line2": "2 40748  55.0429 308.6206 0012292 268.2932  91.5527  1.86229067 70561"
      },
      "geometry": {
        "type": "Point",
        "coordinates": [
          131.47547418732077,
          -4.142721002087666
        ]
      }
    },
    {
      "type": "Feature",
      "properties": {
        "norad_id": 40749,
        "name": "BEIDOU-3S M1S (C57)",
        "group": "beidou",
        "lat": 24.69188645035133,
        "lon": -32.68597199233422,
        "alt_km": 21515.170806852075,
        "timestamp": "2025-12-08T23:34:04.234490+00:00",
        "meta_object_name": "BEIDOU-3S M1S (C57)",
        "meta_object_id": "2015-037B",
        "meta_epoch": "2025-12-01T22:57:46.412352",
        "meta_mean_motion": 1.86253762,
        "meta_eccentricity": 0.0003321,
        "meta_inclination": 55.0451,
        "meta_ra_of_asc_node": 308.8236,
        "meta_arg_of_pericenter": 355.9906,
        "meta_mean_anomaly": 3.9975,
        "meta_ephemeris_type": 0,
        "meta_classification_type": "U",
        "meta_norad_cat_id": 40749,
        "meta_element_set_no": 999,
        "meta_rev_at_epoch": 7045,
        "meta_bstar": 0,
        "meta_mean_motion_dot": -6e-07,
        "meta_mean_motion_ddot": 0,
        "tle_line1": "1 40749U 15037B   25335.95678718 -.00000060  00000+0  00000+0 0  9994",
        "tle_line2": "2 40749  55.0451 308.8236 0003321 355.9906   3.9975  1.86253762 70451"
      },
      "geometry": {
        "type": "Point",
        "coordinates": [
          -32.68597199233422,
          24.69188645035133
        ]
      }
    },
    {
      "type": "Feature",
      "properties": {
        "norad_id": 40938,
        "name": "BEIDOU-3S IGSO-2S (C56)",
        "group": "beidou",
        "lat": -49.4762764379483,
        "lon": 166.67618718750285,
        "alt_km": 35739.97507563722,
        "timestamp": "2025-12-08T23:34:04.234503+00:00",
        "meta_object_name": "BEIDOU-3S IGSO-2S (C56)",
        "meta_object_id": "2015-053A",
        "meta_epoch": "2025-12-07T17:59:38.817312",
        "meta_mean_motion": 1.00270783,
        "meta_eccentricity": 0.0060962,
        "meta_inclination": 49.5194,
        "meta_ra_of_asc_node": 261.0646,
        "meta_arg_of_pericenter": 188.6217,
        "meta_mean_anomaly": 353.0712,
        "meta_ephemeris_type": 0,
        "meta_classification_type": "U",
        "meta_norad_cat_id": 40938,
        "meta_element_set_no": 999,
        "meta_rev_at_epoch": 3743,
        "meta_bstar": 0,
        "meta_mean_motion_dot": -1.42e-06,
        "meta_mean_motion_ddot": 0,
        "tle_line1": "1 40938U 15053A   25341.74975483 -.00000142  00000+0  00000+0 0  9996",
        "tle_line2": "2 40938  49.5194 261.0646 0060962 188.6217 353.0712  1.00270783 37435"
      },
      "geometry": {
        "type": "Point",
        "coordinates": [
          166.67618718750285,
          -49.4762764379483
        ]
      }
    }
  ]
}